[{"OBJECT_NAME":"IRIDIUM 155","OBJECT_ID":"2018-061E","EPOCH":"2026-03-09T14:54:30.448800","MEAN_MOTION":14.34217216,"ECCENTRICITY":0.000198,"INCLINATION":86.3914,"RA_OF_ASC_NODE":98.3248,"ARG_OF_PERICENTER":94.0732,"MEAN_ANOMALY":266.069,"EPHEMERIS_TYPE":0,"CLASSIFICATION_TYPE":"U","NORAD_CAT_ID":43573,"ELEMENT_SET_NO":999,"REV_AT_EPOCH":39908,"BSTAR":-1.8836e-5,"MEAN_MOTION_DOT":-3.3e-7,"MEAN_MOTION_DDOT":0},{"OBJECT_NAME":"COSMOS 1867 COOLANT","OBJECT_ID":"1987-060AF","EPOCH":"2026-03-08T01:12:04.613760","MEAN_MOTION":14.33943096,"ECCENTRICITY":0.00155188,"INCLINATION":65.0092,"RA_OF_ASC_NODE":292.576,"ARG_OF_PERICENTER":281.0524,"MEAN_ANOMALY":78.8816,"EPHEMERIS_TYPE":0,"CLASSIFICATION_TYPE":"U","NORAD_CAT_ID":39668,"ELEMENT_SET_NO":999,"REV_AT_EPOCH":62215,"BSTAR":0.00017002867,"MEAN_MOTION_DOT":3.75e-6,"MEAN_MOTION_DDOT":0}]
